[{"OBJECT_NAME":"STARLINK-32620","OBJECT_ID":"2024-207S","EPOCH":"2026-03-09T23:04:51.320640","MEAN_MOTION":15.27587154,"ECCENTRICITY":0.00012387,"INCLINATION":42.9976,"RA_OF_ASC_NODE":280.2017,"ARG_OF_PERICENTER":177.7922,"MEAN_ANOMALY":182.2936,"EPHEMERIS_TYPE":0,"CLASSIFICATION_TYPE":"U","NORAD_CAT_ID":61928,"ELEMENT_SET_NO":999,"REV_AT_EPOCH":7476,"BSTAR":0.00082729981,"MEAN_MOTION_DOT":0.00022578,"MEAN_MOTION_DDOT":0},{"OBJECT_NAME":"AIST-2 (RS43)","OBJECT_ID":"2013-015D","EPOCH":"2026-03-09T22:52:25.813056","MEAN_MOTION":15.25079544,"ECCENTRICITY":0.00239979,"INCLINATION":64.8687,"RA_OF_ASC_NODE":221.5348,"ARG_OF_PERICENTER":248.8384,"MEAN_ANOMALY":111.0181,"EPHEMERIS_TYPE":0,"CLASSIFICATION_TYPE":"U","NORAD_CAT_ID":39133,"ELEMENT_SET_NO":999,"REV_AT_EPOCH":70876,"BSTAR":0.00037899099,"MEAN_MOTION_DOT":9.402e-5,"MEAN_MOTION_DDOT":0}]
